ONEWEB-0612             
1 54675U 22166AK  24068.95682759 -.00000049  00000+0 -14915-3 0  9992
2 54675  87.9236  49.2044 0002174  92.6033 267.5350 13.21826130 61758
ONEWEB-0615             
1 54676U 22166AL  24068.93788305 -.00000039  00000+0 -12556-3 0  9993
2 54676  87.9237  49.2325 0002241  83.6460 276.4929 13.21826867 61760
ONEWEB-0655             
1 54677U 22166AM  24068.68398082  .00000002  00000+0 -26728-4 0  9991
2 54677  87.9236  49.2845 0002508  80.0828 280.0589 13.21827393 61726
ONEWEB-0659             
1 54678U 22166AN  24068.70133935 -.00000068  00000+0 -19580-3 0  9999
2 54678  87.9235  49.2892 0001648  83.9279 276.2043 13.21826748 61819
ONEWEB-0685             
1 54679U 22166AP  24068.70290606 -.00000049  00000+0 -15028-3 0  9991
2 54679  87.9236  49.2767 0002316  86.8693 273.2706 13.21826733 61702
ONEWEB-0712             
1 54680U 22166AQ  24068.82412111 -.00000033  00000+0 -12040-3 0  9997
2 54680  87.9096  34.0375 0001791  68.6458 291.4864 13.16593497 62797
ONEWEB-0714             
1 54681U 22166AR  24068.70923109  .00000046  00000+0  78848-4 0  9990
2 54681  87.9238  49.2601 0002261  85.9378 274.2014 13.21826281 61827
ONEWEB-0532             
1 55140U 23004A   24068.51883393  .00000106  00000+0  23917-3 0  9995
2 55140  87.9264 171.1024 0002111 129.4973 230.6345 13.17656159 58199
